OBJECT_NAME,OBJECT_ID,EPOCH,MEAN_MOTION,ECCENTRICITY,INCLINATION,RA_OF_ASC_NODE,ARG_OF_PERICENTER,MEAN_ANOMALY,EPHEMERIS_TYPE,CLASSIFICATION_TYPE,NORAD_CAT_ID,ELEMENT_SET_NO,REV_AT_EPOCH,BSTAR,MEAN_MOTION_DOT,MEAN_MOTION_DDOT
STARLINK-34794,2025-165Q,2026-07-13T19:20:24.943200,15.05656995,.000136,97.2846,269.4682,117.6413,242.4953,0,U,65070,999,5376,.10681E-3,.1485E-4,0
STARLINK-34805,2025-165R,2026-07-13T19:12:27.097632,15.05668240,.0003035,97.2821,269.4780,71.4160,288.7397,0,U,65071,999,5376,.49639E-4,.66E-5,0
STARLINK-34735,2025-165S,2026-07-13T18:32:34.285056,15.05662767,.000068,97.2824,269.5100,111.0766,249.0534,0,U,65072,999,5376,.22011E-3,.3122E-4,0
STARLINK-34781,2025-165T,2026-07-13T17:56:41.601408,15.05658330,.0002169,97.2851,269.5465,142.2416,217.8964,0,U,65073,999,5376,.16041E-3,.2259E-4,0
STARLINK-34780,2025-165U,2026-07-13T19:04:28.450272,15.05655764,.0002268,97.2841,269.4834,127.4743,232.6691,0,U,65074,999,5376,.78041E-4,.107E-4,0
STARLINK-34771,2025-167A,2026-07-13T06:34:34.972032,15.30202144,.0001055,53.1565,160.8076,87.6656,272.4465,0,U,65078,999,5274,.24162E-3,.6804E-4,0
STARLINK-34634,2025-167B,2026-07-13T07:15:00.658944,15.34425635,.0000673,53.1600,158.8574,90.6931,269.4149,0,U,65079,999,5277,.69058235E-3,.23047E-3,0
STARLINK-34267,2025-167C,2026-07-12T07:51:05.865408,15.34405981,.00007447,53.1587,163.4352,203.0070,157.0899,0,U,65080,999,5384,.58542162E-3,.19458E-3,0
STARLINK-34561,2025-167D,2026-07-13T07:57:59.488992,15.30199753,.00011527,53.1552,160.4566,90.6131,269.5002,0,U,65081,999,5400,.17177221E-3,.4732E-4,0
STARLINK-34626,2025-167E,2026-07-13T07:20:22.756416,15.34411220,.00021428,53.1588,157.4837,77.4680,282.6562,0,U,65082,999,5279,.69527826E-3,.23196E-3,0
STARLINK-34247,2025-167F,2026-07-13T06:43:40.368576,15.30238654,.0001563,53.1561,160.8471,67.4146,292.7020,0,U,65083,999,5274,.6678E-3,.19495E-3,0
STARLINK-34601,2025-167G,2026-07-13T16:40:06.643776,15.34418550,.0004447,53.1485,155.5624,68.3826,291.7650,0,U,65084,999,5284,.39784E-3,.13098E-3,0
STARLINK-34822,2025-167J,2026-07-13T08:21:44.166240,15.30215180,.00024506,53.1579,163.3513,84.4212,275.7069,0,U,65086,999,5271,.75384832E-3,.22045E-3,0
STARLINK-34686,2025-167K,2026-07-12T22:52:49.180800,15.30217518,.0001998,53.1534,165.1538,77.1025,283.0199,0,U,65087,999,5265,.4420513E-3,.12763E-3,0
STARLINK-34594,2025-167L,2026-07-13T08:12:34.956864,15.30223336,.00015751,53.1565,163.3118,92.3495,267.7686,0,U,65088,999,5271,.28985389E-3,.8241E-4,0
STARLINK-34665,2025-167M,2026-07-13T06:33:59.939424,15.30212284,.0001104,53.1578,163.5934,99.2181,260.8945,0,U,65089,999,5270,.44265E-3,.12778E-3,0
STARLINK-34673,2025-167N,2026-07-13T08:03:27.641376,15.30197835,.00011688,53.1580,163.2729,6.8466,353.2550,0,U,65090,999,5271,.68521535E-3,.19988E-3,0
STARLINK-34648,2025-167P,2026-07-13T07:23:23.126784,15.34414304,.00005489,53.1608,157.4107,78.9534,281.1530,0,U,65091,999,5279,.59831626E-3,.19902E-3,0
STARLINK-34640,2025-167Q,2026-07-12T08:26:35.551104,15.30199275,.00012676,53.1569,167.7937,97.4646,262.6498,0,U,65092,999,5256,.38803886E-3,.1115E-3,0
STARLINK-34266,2025-167R,2026-07-13T07:08:14.333568,15.34424574,.0000664,53.1596,157.3443,73.0047,287.1028,0,U,65093,999,5279,.40731376E-3,.13421E-3,0
STARLINK-34769,2025-167S,2026-07-12T22:12:44.005248,15.34410135,.0001841,53.1569,159.2888,89.4399,270.6814,0,U,65094,999,5272,.5449156E-3,.18085E-3,0
STARLINK-34768,2025-167T,2026-07-13T07:32:27.843360,15.34426432,.00005887,53.1588,157.4497,251.0094,109.0845,0,U,65095,999,5279,.70999185E-3,.23708E-3,0
STARLINK-34759,2025-167U,2026-07-12T22:06:40.454784,15.34415045,.00021156,53.1551,159.2614,93.2387,266.8857,0,U,65096,999,5273,.8014053E-3,.26811E-3,0
STARLINK-34741,2025-167V,2026-07-13T21:30:35.096256,15.34417883,.0002237,53.1537,154.6758,101.3795,258.7459,0,U,65097,999,5288,.56443E-3,.18753E-3,0
STARLINK-34764,2025-167W,2026-07-13T08:49:35.764320,15.34426052,.00011789,53.1578,160.6313,97.9956,262.1181,0,U,65098,999,5275,.67973876E-3,.22678E-3,0
STARLINK-34815,2025-167X,2026-07-13T21:10:53.264352,15.34389614,.0001396,53.1574,158.1570,95.1759,264.9403,0,U,65099,999,5283,.24319E-3,.7846E-4,0
STARLINK-34814,2025-167Y,2026-07-13T09:07:46.871040,15.34402633,.0001389,53.1566,160.7111,89.4170,270.6991,0,U,65100,999,5275,.22285706E-3,.7161E-4,0
STARLINK-34285,2025-167Z,2026-07-13T00:15:19.043712,15.34382708,.00012726,53.1560,162.6674,92.8796,267.2352,0,U,65101,999,5269,.37331445E-3,.12251E-3,0
STARLINK-34857,2025-167AA,2026-07-13T07:38:32.722656,15.34406166,.00009367,53.1599,157.4705,80.9543,279.1565,0,U,65102,999,5278,.46058473E-3,.1522E-3,0
STARLINK-34887,2025-167AB,2026-07-12T08:46:26.495616,15.34392828,.00015441,53.1564,165.7505,75.1749,284.9424,0,U,65103,999,5259,.12890897E-3,.398E-4,0
STARLINK-34481,2025-167AC,2026-07-13T07:11:16.293696,15.34408464,.00023101,53.1554,157.3534,76.4878,283.6381,0,U,65104,999,5278,.47739232E-3,.15792E-3,0
STARLINK-34545,2025-167AD,2026-07-13T07:14:17.895264,15.34427806,.00004965,53.1580,157.3666,67.5954,292.5102,0,U,65105,999,5279,.48993895E-3,.16228E-3,0
STARLINK-34956,2025-175A,2026-07-13T21:02:51.821952,15.09971074,.000198,97.2841,64.9435,108.3114,251.8331,0,U,65174,999,5159,.25238E-1,.435134E-2,0
STARLINK-34949,2025-175B,2026-07-13T20:00:01.999008,15.10361799,.000098,97.2841,64.9209,94.6338,77.5113,0,U,65175,999,583,.32495E-1,.570295E-2,0
STARLINK-34707,2025-175C,2026-07-13T20:00:01.999008,15.10562971,.0001863,97.2838,64.9162,72.1449,87.1897,0,U,65176,999,578,-.24912E-2,-.409E-3,0
STARLINK-34967,2025-175D,2026-07-13T20:00:01.999008,15.10549171,.0001548,97.2837,64.9099,68.4937,92.3161,0,U,65177,999,583,-.23702E-2,-.38911E-3,0
STARLINK-34929,2025-175E,2026-07-13T20:00:01.999008,15.10564345,.000192,97.2844,64.9484,83.9251,152.0865,0,U,65178,999,577,-.26315E-2,-.43187E-3,0
STARLINK-34932,2025-175F,2026-07-13T20:00:01.999008,15.10556746,.0001999,97.2839,64.9456,81.8236,144.3933,0,U,65179,999,552,-.26195E-2,-.42984E-3,0
STARLINK-34862,2025-175G,2026-07-13T20:00:01.999008,15.09330953,.0001696,97.2844,64.9382,78.3774,131.8290,0,U,65180,999,582,.10012E+0,.175169E-1,0
STARLINK-34942,2025-175H,2026-07-13T15:37:36.659136,15.10552227,.0001739,97.2828,64.7880,94.1273,266.0156,0,U,65181,999,5156,.20057E-3,.3248E-4,0
STARLINK-34944,2025-175J,2026-07-13T20:00:01.999008,15.10557829,.000137,97.2853,64.9505,86.8976,150.2944,0,U,65182,999,572,-.28225E-2,-.46289E-3,0
STARLINK-34939,2025-175K,2026-07-13T15:26:42.654336,15.10554090,.000182,97.2854,64.8015,75.9435,284.1998,0,U,65183,999,5156,.26069E-3,.424E-4,0
STARLINK-34947,2025-175L,2026-07-13T15:42:29.536128,15.05659686,.0002099,97.2850,64.7873,82.3570,277.7896,0,U,65184,999,5159,.16044E-3,.226E-4,0
STARLINK-34945,2025-175M,2026-07-13T15:38:31.332192,15.05647169,.0001718,97.2857,64.7902,66.2485,293.8923,0,U,65185,999,5159,.83046E-4,.1142E-4,0
STARLINK-34965,2025-175N,2026-07-13T20:00:01.999008,15.10561553,.0001779,97.2845,64.9930,72.6310,262.7098,0,U,65186,999,582,-.26092E-2,-.4282E-3,0
STARLINK-34915,2025-175P,2026-07-13T20:00:01.999008,15.10547427,.0001824,97.2849,64.9774,82.6783,215.2899,0,U,65187,999,577,-.26224E-2,-.4302E-3,0
STARLINK-34972,2025-175Q,2026-07-13T15:26:31.829280,15.05671260,.0002228,97.2857,64.8052,91.3053,268.8430,0,U,65188,999,5156,.30037E-3,.4283E-4,0
STARLINK-34866,2025-175R,2026-07-13T15:22:33.449088,15.05659762,.0002206,97.2859,64.8076,95.2234,264.9245,0,U,65189,999,5159,.11788E-3,.1645E-4,0
STARLINK-34917,2025-175S,2026-07-13T20:00:01.999008,15.05678375,.0002354,97.2855,64.9963,90.3561,248.5905,0,U,65190,999,572,-.31669E-2,-.45494E-3,0
STARLINK-34948,2025-175T,2026-07-13T20:00:01.999008,15.10556222,.0001339,97.2842,65.0112,86.2470,298.3357,0,U,65191,999,567,-.24617E-2,-.4041E-3,0
STARLINK-34955,2025-175U,2026-07-13T15:10:36.055200,15.05660368,.00029685,97.2844,64.8184,92.9929,267.1638,0,U,65192,999,5156,.1704283E-3,.2404E-4,0
STARLINK-34950,2025-175V,2026-07-13T15:06:38.582208,15.05639217,.0001912,97.2767,64.8136,35.8610,324.2746,0,U,65193,999,5156,-.10025E-3,-.1502E-4,0
STARLINK-34926,2025-175W,2026-07-13T14:50:40.927200,15.05653817,.0002198,97.2861,64.8418,88.8306,271.3174,0,U,65194,999,5156,.20101E-3,.2845E-4,0
STARLINK-34928,2025-175X,2026-07-13T14:54:40.206816,15.05650520,.0002135,97.2850,64.8358,82.2105,277.9365,0,U,65195,999,5159,.2837E-3,.4039E-4,0
STARLINK-34927,2025-175Y,2026-07-13T15:02:38.479200,15.05654958,.0002097,97.2833,64.8253,94.5572,265.5895,0,U,65196,999,5159,.21668E-3,.3072E-4,0
STARLINK-34952,2025-175Z,2026-07-12T16:38:50.546112,15.05656354,.00024906,97.2855,63.9528,81.8517,278.2993,0,U,65197,999,5145,.21922546E-3,.3109E-4,0
STARLINK-34981,2025-176A,2026-07-13T12:14:21.056352,15.30234602,.00010974,53.1595,291.1718,84.8349,275.2777,0,U,65198,999,5234,.52062462E-3,.15108E-3,0
STARLINK-34821,2025-176B,2026-07-13T14:44:09.562848,15.34408890,.0000939,53.1586,285.4435,93.8151,266.2959,0,U,65199,999,5236,.3205E-3,.10471E-3,0
STARLINK-34865,2025-176C,2026-07-13T12:49:17.147136,15.34405870,.0001088,53.1594,286.3732,80.1433,279.9692,0,U,65200,999,5241,.47926E-3,.15854E-3,0
STARLINK-34843,2025-176D,2026-07-13T13:31:34.309920,15.34411073,.0001164,53.1607,285.8324,53.0569,307.0540,0,U,65201,999,5242,.37852E-3,.12438E-3,0
STARLINK-34905,2025-176E,2026-07-13T13:34:36.365088,15.34430975,.0001311,53.1600,285.8525,37.6817,322.4277,0,U,65202,999,5242,.38301E-3,.12599E-3,0
STARLINK-34914,2025-176F,2026-07-13T11:54:44.502624,15.34410722,.000079,53.1601,286.1344,111.4830,248.6257,0,U,65203,999,5241,.49568967E-3,.16414E-3,0
STARLINK-34787,2025-176G,2026-07-13T13:07:19.827264,15.34410002,.0001056,53.1595,285.7337,96.8044,263.3079,0,U,65204,999,5242,.28593E-3,.93E-4,0
STARLINK-34796,2025-176H,2026-07-13T12:28:04.219392,15.34400866,.0000595,53.1597,286.2788,50.0805,310.0250,0,U,65205,999,5241,.65375E-3,.21777E-3,0
STARLINK-34763,2025-176J,2026-07-13T12:22:01.360128,15.34417162,.0001341,53.1607,286.2494,78.2452,281.8701,0,U,65206,999,5240,.43023E-3,.14195E-3,0
